GOES 1 (SMS-C)          
1 08366U 75100A   26059.50927091 -.00000008  00000+0  00000+0 0  9998
2 08366   4.8844 278.7959 0005460 359.3391 303.3533  1.00236664183974
GOES 2                  
1 10061U 77048A   26059.50553193 -.00000322  00000+0  00000+0 0  9993
2 10061   6.6783 294.2494 0013876  47.3044 126.6425  0.99399348 45190
GOES 3                  
1 10953U 78062A   26059.37596044 -.00000199  00000+0  00000+0 0  9999
2 10953   7.1478 300.0743 0002920 352.7112 172.3370  0.99365395127459
GOES 4                  
1 11964U 80074A   26059.44132153 -.00000269  00000+0  00000+0 0  9991
2 11964   8.2207 303.7590 0032036 102.9202 232.9013  0.99232463126354
GOES 5                  
1 12472U 81049A   26059.21746047 -.00000205  00000+0  00000+0 0  9997
2 12472   9.5532 316.3687 0004718 335.9546 216.2577  1.00212361121753
GOES 6                  
1 14050U 83041A   26059.40340725 -.00000080  00000+0  00000+0 0  9990
2 14050  10.3636 321.9255 0002394 305.8940 286.9194  1.00217531214922
GOES 7                  
1 17561U 87022A   26059.42343251  .00000053  00000+0  00000+0 0  9991
2 17561  13.0242 338.4022 0003938  14.4096 190.0782  0.99893493125877
GOES 8                  
1 23051U 94022A   26058.55970665 -.00000133  00000+0  00000+0 0  9998
2 23051  14.3362  14.5069 0004906  13.0325 163.1304  0.98907026123049
GOES 9                  
1 23581U 95025A   26059.29450751 -.00000181  00000+0  00000+0 0  9994
2 23581  13.8660  15.3431 0003745 211.5741 338.8681  0.98800035111689
GOES 10                 
1 24786U 97019A   26059.32856767 -.00000208  00000+0  00000+0 0  9998
2 24786  12.9991  21.8757 0031540 238.8846 128.5931  0.99123399104999
GOES 11                 
1 26352U 00022A   26059.36592117 -.00000201  00000+0  00000+0 0  9990
2 26352  11.5716  47.4834 0006002 253.8579 290.5065  0.99042318 51399
GOES 12                 
1 26871U 01031A   26059.29762751 -.00000259  00000+0  00000+0 0  9995
2 26871  11.9872  38.1779 0008773 295.1923 248.9178  0.99138744 89680
EWS-G1 (GOES 13)        
1 29155U 06018A   26059.39079642 -.00000030  00000+0  00000+0 0  9991
2 29155   4.2503  77.7521 0061965 272.6181 218.8541  0.98784695 42170
GOES 14                 
1 35491U 09033A   26059.52234131  .00000113  00000+0  00000+0 0  9993
2 35491   1.4085  84.4739 0002065 290.7160 175.0864  1.00122159  5507
EWS-G2 (GOES 15)        
1 36411U 10008A   26059.51044560  .00000003  00000+0  00000+0 0  9992
2 36411   0.9992  85.2285 0001525  26.2431 294.1247  1.00268769 58547
GOES 16                 
1 41866U 16071A   26059.50229951 -.00000108  00000+0  00000+0 0  9993
2 41866   0.1369  90.4378 0002731 212.1386 291.8547  1.00271159 34013
GOES 17                 
1 43226U 18022A   26059.43100814 -.00000200  00000+0  00000+0 0  9994
2 43226   0.6575  87.6344 0002464 216.2723 279.9979  1.00270249 29337
GOES 18                 
1 51850U 22021A   26059.51479925  .00000079  00000+0  00000+0 0  9994
2 51850   0.0201  73.8097 0000608 305.5211 187.3081  1.00272752  5503
GOES 19                 
1 60133U 24119A   26059.43386814 -.00000266  00000+0  00000+0 0  9992
2 60133   0.0074 284.8281 0001001  83.1649 231.2303  1.00270452  5877
